#aV2010 12  5  0  0   .00000000      96 DD+AD WGS84 FIT  NGA
## 1613       .00000000   900.00000000 55535  .0000000000000
+   32     1  2  3  4  5  6  7  8  9 10 11 12 13 14 15 16 17
+         18 19 20 21 22 23 24 25 26 27 28 29 30 31 32  0  0
+          0  0  0  0  0  0  0  0  0  0  0  0  0  0  0  0  0
+          0  0  0  0  0  0  0  0  0  0  0  0  0  0  0  0  0
+          0  0  0  0  0  0  0  0  0  0  0  0  0  0  0  0  0
++         0  0  0  0  0  0  0  0  0  0  0  0  0  0  0  0  0
++         0  0  0  0  0  0  0  0  0  0  0  0  0  0  0  0  0
++         0  0  0  0  0  0  0  0  0  0  0  0  0  0  0  0  0
++         0  0  0  0  0  0  0  0  0  0  0  0  0  0  0  0  0
++         0  0  0  0  0  0  0  0  0  0  0  0  0  0  0  0  0
%c cc cc ccc ccc cccc cccc cccc cccc ccccc ccccc ccccc ccccc
%c cc cc ccc ccc cccc cccc cccc cccc ccccc ccccc ccccc ccccc
%f  0.0000000  0.000000000  0.00000000000  0.000000000000000
%f  0.0000000  0.000000000  0.00000000000  0.000000000000000
%i    0    0    0    0      0      0      0      0         0
%i    0    0    0    0      0      0      0      0         0
/*      NGA, ST. LOUIS,MO.                                  
/*   EPHEMERIS COMPUTED FROM  3 DAYS OF DATA                
/* CCCCCCCCCCCCCCCCCCCCCCCCCCCCCCCCCCCCCCCCCCCCCCCCCCCCCCCCC
/* CCCCCCCCCCCCCCCCCCCCCCCCCCCCCCCCCCCCCCCCCCCCCCCCCCCCCCCCC
*  2010 12  5  2 30   .00000000                                                 
P  1  -7540.776929 -13155.352735 -21913.796328   -188.372069                    
V  1  22683.919129 -15618.072205   1701.115789      -.034446                    
P  2  13244.166407  17134.031447 -15676.667520    306.641647                    
V  2   -113.932645  19901.923548  21175.899470       .023931                    
P  3 -24480.502992 -10410.492658  -3080.122347    644.248093                    
V  3   4336.439260  -2278.637854 -30474.574984       .052790                    
P  4   7703.819418  24062.667728  -7778.217442    236.650669                    
V  4  -2731.369870  10000.078238  29323.695159       .097325                    
P  5  18558.668221   3188.581448 -18783.423575    -77.873563                    
V  5 -18688.992015  14807.689826 -15863.985967      -.059579                    
P  6 -22014.525462 -13732.866878  -5956.436260    400.097431                    
V  6   8453.187767   -185.530526 -29818.709777      -.106932                    
P  7  -6527.862261  22598.171921 -12131.235895       .024676                    
V  7  -3355.092340 -15250.601129 -26788.996248       .004294                    
P  8   -503.262496  26231.065525   -996.086440      7.012804                    
V  8  -2200.536230  -1286.167057 -32834.455720       .000338                    
P  9  13936.297011  -4863.401474  21540.073032     46.689366                    
V  9   3378.308414  28400.224500   4138.013402       .024488                    
P 10   5801.375770  14605.624732 -21575.734062    -59.486742                    
V 10 -22805.231824  14474.733145   4065.075471      -.009668                    
P 11 -14424.914191   8659.445950  20209.077237   -108.913432                    
V 11  -9462.957952 -25027.970495   4271.056262      -.028363                    
P 12  23469.207278  -9984.526371   7152.176652    -47.764428                    
V 12  -6161.899897   7066.605480  30379.610288       .034875                    
P 13 -10317.362317  10789.060223 -22105.355913    290.066980                    
V 13 -23958.154974 -13817.947431   4419.617439      -.011232                    
P 14  -8711.010720 -18011.289740  17696.163061    112.919032                    
V 14  19965.462204   9422.587173  19462.795917       .032231                    
P 15  23904.945263   1636.451887  11640.961585   -175.596287                    
V 15  12400.644255   8312.274427 -26526.757462       .043096                    
P 16 -14855.935217  -7205.805787 -20835.638012   -131.732226                    
V 16  21804.917661 -14931.201356 -10094.637574      -.031641                    
P 17   6660.609124  17939.199906  18624.349977    178.968432                    
V 17 -21449.326790  -9300.971215  16509.045843       .009089                    
P 18  13272.658591 -19543.517040  12057.559379    108.468825                    
V 18  14289.714063  -5702.679957 -25972.992356       .021559                    
P 19 -24153.267350  -5923.585484   9777.227457    -89.143624                    
V 19  -9508.432531  -8166.749571 -28126.166076      -.034332                    
P 20 -22624.094937  13199.331915   4047.483012     49.223342                    
V 20   2102.251422  -6101.255969  30659.121976      -.001609                    
P 21   5684.409621 -23479.718936  -9928.049365   -107.109943                    
V 21   4835.607820  13083.721581 -27795.307824      -.026909                    
P 22   1943.240114 -18361.358611  19231.118713    157.603925                    
V 22  21085.646616 -11969.009544 -13770.900819      -.006099                    
P 23 -20048.747405   3547.840578 -17233.005417    339.903186                    
V 23 -18950.579645 -10745.170609  19509.403711      -.021110                    
P 24 -15409.493822   2276.398333  21568.219939    344.872581                    
V 24  -1182.968583 -27270.833030   2304.338841       .033677                    
P 25  18722.536801 -18058.597785  -5408.817424    -55.823704                    
V 25   7124.714719  -1807.660451  30786.075207      -.023437                    
P 26  23502.262251  12815.576647    478.352711    -65.255146                    
V 26    352.783335   2017.062391 -32079.721589      -.084427                    
P 27  15386.493856   2827.712871  22175.369821    214.013864                    
V 27   3288.058172  26252.456684  -5575.360865       .036961                    
P 28  -5662.090624  18572.464014  18490.489577      7.825124                    
V 28 -19731.878539  10991.374405 -17837.304177       .017513                    
P 29  12236.247031 -10310.970129 -21115.333281    168.295207                    
V 29  23703.132579  12947.067446   7422.878323       .026242                    
P 30   2432.738489 -18721.412774 -19127.411668    302.099540                    
V 30  19400.381474 -13117.067215  15664.900238       .032255                    
P 31  -8374.074472 -23033.033200  -9778.195001     15.423866                    
V 31   1231.536708 -12898.216691  28884.027365       .038459                    
P 32 -23534.921474   4218.013896  11447.535134   -146.265398                    
V 32  10978.212068  -9419.954170  27156.373574      -.083177                    
EOF
